[{"OBJECT_NAME":"TIANMU-1 09","OBJECT_ID":"2023-101C","EPOCH":"2026-03-09T22:17:34.703232","MEAN_MOTION":15.29080822,"ECCENTRICITY":0.00049013,"INCLINATION":97.267,"RA_OF_ASC_NODE":121.1263,"ARG_OF_PERICENTER":139.4293,"MEAN_ANOMALY":220.7314,"EPHEMERIS_TYPE":0,"CLASSIFICATION_TYPE":"U","NORAD_CAT_ID":57401,"ELEMENT_SET_NO":999,"REV_AT_EPOCH":14647,"BSTAR":0.00030540035,"MEAN_MOTION_DOT":8.553e-5,"MEAN_MOTION_DDOT":0},{"OBJECT_NAME":"STARLINK-32274","OBJECT_ID":"2024-154V","EPOCH":"2026-03-09T19:39:55.073952","MEAN_MOTION":15.30195027,"ECCENTRICITY":9.661e-5,"INCLINATION":53.1596,"RA_OF_ASC_NODE":283.3217,"ARG_OF_PERICENTER":95.4006,"MEAN_ANOMALY":264.7105,"EPHEMERIS_TYPE":0,"CLASSIFICATION_TYPE":"U","NORAD_CAT_ID":60922,"ELEMENT_SET_NO":999,"REV_AT_EPOCH":8636,"BSTAR":6.290058e-6,"MEAN_MOTION_DOT":-1.73e-6,"MEAN_MOTION_DDOT":0}]
